{
  "norad_id": 58376,
  "name": "STARLINK-30910",
  "history": [
    {
      "epoch": "2026-03-28T18:35:24.613152",
      "apogee_km": 476.2486668827596,
      "perigee_km": 474.18032540122385,
      "latitude_deg": -9.412097443018023,
      "longitude_deg": 91.96068128012121,
      "semi_major_axis_km": 6853.351496141991,
      "eccentricity": 0.0001509,
      "inclination_deg": 53.1597,
      "raan_deg": 272.4121,
      "arg_perigee_deg": 79.8977,
      "mean_anomaly_deg": 280.2194,
      "mean_motion_rev_day": 15.30200192
    }
  ]
}