{"fetched_at":"2026-03-29T16:36:15Z","count":15609,"tles":[{"name":"STARLINK-30910","line1":"1 58376U 23178C   26087.77459043  .00005126  00000+0  18508-3 0  9990","line2":"2 58376  53.1597 272.4121 0001509  79.8977 280.2194 15.30200192132816","category":"Starlink"}]}